start=new Date('2022-07-13T00:00:00.000Z').valueOf();
sats=[{"PERIOD":"95.592","ARG_OF_PERICENTER":"56.9756","SITE":"AFETR","COUNTRY_CODE":"US","MEAN_ANOMALY":"303.1406","MEAN_MOTION_DDOT":"0.0000000000000","REF_FRAME":"TEME","RA_OF_ASC_NODE":"229.5786","MEAN_MOTION_DOT":"0.00004813","ECCENTRICITY":"0.00018020","SEMIMAJOR_AXIS":"6925.339","CLASSIFICATION_TYPE":"U","TLE_LINE2":"2 48380  53.0525 229.5786 0001802  56.9756 303.1406 15.06403134 65783","LAUNCH_DATE":"2021-05-04","NORAD_CAT_ID":"48380","OBJECT_ID":"2021-038AD","RCS_SIZE":"LARGE","BSTAR":"0.00034178000000","TIME_SYSTEM":"UTC","APOAPSIS":"548.452","DECAY_DATE":null,"REV_AT_EPOCH":"6578","GP_ID":"207998969","CENTER_NAME":"EARTH","INCLINATION":"53.0525","EPOCH":"2022-07-12T14:19:09.511104","TLE_LINE1":"1 48380U 21038AD  22193.59663786  .00004813  00000-0  34178-3 0  9996","OBJECT_TYPE":"PAYLOAD","EPHEMERIS_TYPE":"0","PERIAPSIS":"545.956","MEAN_MOTION":"15.06403134","ELEMENT_SET_NO":"999","MEAN_ELEMENT_THEORY":"SGP4","OBJECT_NAME":"STARLINK-2614","FILE":"3512432"},{"MEAN_MOTION":"15.06413850","ELEMENT_SET_NO":"999","EPOCH":"2022-07-12T08:51:25.721280","TLE_LINE1":"1 48381U 21038AE  22193.36904770  .00011420  00000-0  78402-3 0  9993","OBJECT_TYPE":"PAYLOAD","EPHEMERIS_TYPE":"0","PERIAPSIS":"546.106","MEAN_ELEMENT_THEORY":"SGP4","OBJECT_NAME":"STARLINK-2630","FILE":"3512184","GP_ID":"207969277","APOAPSIS":"548.236","DECAY_DATE":null,"REV_AT_EPOCH":"6575","INCLINATION":"53.0525","CENTER_NAME":"EARTH","NORAD_CAT_ID":"48381","OBJECT_ID":"2021-038AE","BSTAR":"0.00078402000000","TIME_SYSTEM":"UTC","RCS_SIZE":"LARGE","REF_FRAME":"TEME","MEAN_MOTION_DDOT":"0.0000000000000","PERIOD":"95.591","ARG_OF_PERICENTER":"55.3597","SITE":"AFETR","COUNTRY_CODE":"US","MEAN_ANOMALY":"304.7536","CLASSIFICATION_TYPE":"U","SEMIMAJOR_AXIS":"6925.306","TLE_LINE2":"2 48381  53.0525 230.5988 0001538  55.3597 304.7536 15.06413850 65756","LAUNCH_DATE":"2021-05-04","RA_OF_ASC_NODE":"230.5988","MEAN_MOTION_DOT":"0.00011420","ECCENTRICITY":"0.00015380"},{"APOAPSIS":"548.418","DECAY_DATE":null,"REV_AT_EPOCH":"6578","GP_ID":"207998483","INCLINATION":"53.0520","CENTER_NAME":"EARTH","EPOCH":"2022-07-12T13:32:44.660256","TLE_LINE1":"1 48382U 21038AF  22193.56440579  .00011024  00000-0  75737-3 0  9996","EPHEMERIS_TYPE":"0","OBJECT_TYPE":"PAYLOAD","PERIAPSIS":"545.873","MEAN_MOTION":"15.06422167","ELEMENT_SET_NO":"999","MEAN_ELEMENT_THEORY":"SGP4","OBJECT_NAME":"STARLINK-2585","FILE":"3512432","PERIOD":"95.591","ARG_OF_PERICENTER":"50.0756","SITE":"AFETR","COUNTRY_CODE":"US","MEAN_ANOMALY":"310.0394","MEAN_MOTION_DDOT":"0.0000000000000","REF_FRAME":"TEME","RA_OF_ASC_NODE":"229.7348","MEAN_MOTION_DOT":"0.00011024","ECCENTRICITY":"0.00018370","CLASSIFICATION_TYPE":"U","SEMIMAJOR_AXIS":"6925.281","TLE_LINE2":"2 48382  53.0520 229.7348 0001837  50.0756 310.0394 15.06422167 65789","LAUNCH_DATE":"2021-05-04","NORAD_CAT_ID":"48382","OBJECT_ID":"2021-038AF","RCS_SIZE":"LARGE","BSTAR":"0.00075737000000","TIME_SYSTEM":"UTC"},{"LAUNCH_DATE":"2021-05-04","SEMIMAJOR_AXIS":"6925.363","CLASSIFICATION_TYPE":"U","TLE_LINE2":"2 48383  53.0546 230.0463 0001548  62.2489 297.8656 15.06395417 66992","MEAN_MOTION_DOT":"0.00001916","ECCENTRICITY":"0.00015480","RA_OF_ASC_NODE":"230.0463","MEAN_MOTION_DDOT":"0.0000000000000","REF_FRAME":"TEME","COUNTRY_CODE":"US","MEAN_ANOMALY":"297.8656","PERIOD":"95.592","ARG_OF_PERICENTER":"62.2489","SITE":"AFETR","TIME_SYSTEM":"UTC","BSTAR":"0.00014751000000","RCS_SIZE":"LARGE","NORAD_CAT_ID":"48383","OBJECT_ID":"2021-038AG","INCLINATION":"53.0546","CENTER_NAME":"EARTH","GP_ID":"207968277","DECAY_DATE":null,"REV_AT_EPOCH":"6699","APOAPSIS":"548.300","MEAN_ELEMENT_THEORY":"SGP4","FILE":"3512184","OBJECT_NAME":"STARLINK-2599","ELEMENT_SET_NO":"999","MEAN_MOTION":"15.06395417","PERIAPSIS":"546.156","EPOCH":"2022-07-12T11:51:53.288064","OBJECT_TYPE":"PAYLOAD","TLE_LINE1":"1 48383U 21038AG  22193.49436676  .00001916  00000-0  14751-3 0  9990","EPHEMERIS_TYPE":"0"},{"REF_FRAME":"TEME","MEAN_MOTION_DDOT":"0.0000000000000","PERIOD":"95.594","SITE":"AFETR","ARG_OF_PERICENTER":"58.7761","COUNTRY_CODE":"US","MEAN_ANOMALY":"301.3388","CLASSIFICATION_TYPE":"U","SEMIMAJOR_AXIS":"6925.428","TLE_LINE2":"2 48384  53.0538 230.3564 0001632  58.7761 301.3388 15.06374010 66984","LAUNCH_DATE":"2021-05-04","RA_OF_ASC_NODE":"230.3564","MEAN_MOTION_DOT":"0.00006898","ECCENTRICITY":"0.00016320","NORAD_CAT_ID":"48384","OBJECT_ID":"2021-038AH","BSTAR":"0.00048189000000","TIME_SYSTEM":"UTC","RCS_SIZE":"LARGE","GP_ID":"207968527","APOAPSIS":"548.423","DECAY_DATE":null,"REV_AT_EPOCH":"6698","CENTER_NAME":"EARTH","INCLINATION":"53.0538","MEAN_MOTION":"15.06374010","ELEMENT_SET_NO":"999","EPOCH":"2022-07-12T10:11:04.644384","EPHEMERIS_TYPE":"0","TLE_LINE1":"1 48384U 21038AH  22193.42435931  .00006898  00000-0  48189-3 0  9993","OBJECT_TYPE":"PAYLOAD","PERIAPSIS":"546.163","MEAN_ELEMENT_THEORY":"SGP4","FILE":"3512184","OBJECT_NAME":"STARLINK-2601"},{"MEAN_MOTION_DOT":"0.00006726","ECCENTRICITY":"0.00015320","RA_OF_ASC_NODE":"229.4749","LAUNCH_DATE":"2021-05-04","CLASSIFICATION_TYPE":"U","SEMIMAJOR_AXIS":"6925.358","TLE_LINE2":"2 48385  53.0535 229.4749 0001532  58.8886 301.2253 15.06397048 67015","COUNTRY_CODE":"US","MEAN_ANOMALY":"301.2253","PERIOD":"95.592","ARG_OF_PERICENTER":"58.8886","SITE":"AFETR","MEAN_MOTION_DDOT":"0.0000000000000","REF_FRAME":"TEME","RCS_SIZE":"LARGE","TIME_SYSTEM":"UTC","BSTAR":"0.00047004000000","NORAD_CAT_ID":"48385","OBJECT_ID":"2021-038AJ","INCLINATION":"53.0535","CENTER_NAME":"EARTH","DECAY_DATE":null,"REV_AT_EPOCH":"6701","APOAPSIS":"548.284","GP_ID":"207997735","MEAN_ELEMENT_THEORY":"SGP4","OBJECT_NAME":"STARLINK-2598","FILE":"3512432","PERIAPSIS":"546.162","EPOCH":"2022-07-12T14:52:22.974240","OBJECT_TYPE":"PAYLOAD","TLE_LINE1":"1 48385U 21038AJ  22193.61971035  .00006726  00000-0  47004-3 0  9990","EPHEMERIS_TYPE":"0","ELEMENT_SET_NO":"999","MEAN_MOTION":"15.06397048"},{"TIME_SYSTEM":"UTC","BSTAR":"0.00038251000000","RCS_SIZE":"LARGE","NORAD_CAT_ID":"48386","OBJECT_ID":"2021-038AK","LAUNCH_DATE":"2021-05-04","SEMIMAJOR_AXIS":"6925.323","CLASSIFICATION_TYPE":"U","TLE_LINE2":"2 48386  53.0529 222.1576 0001582  63.5307 296.5844 15.06408396 66529","MEAN_MOTION_DOT":"0.00005422","ECCENTRICITY":"0.00015820","RA_OF_ASC_NODE":"222.1576","MEAN_MOTION_DDOT":"0.0000000000000","REF_FRAME":"TEME","COUNTRY_CODE":"US","MEAN_ANOMALY":"296.5844","PERIOD":"95.592","ARG_OF_PERICENTER":"63.5307","SITE":"AFETR","MEAN_ELEMENT_THEORY":"SGP4","FILE":"3512554","OBJECT_NAME":"STARLINK-2606","ELEMENT_SET_NO":"999","MEAN_MOTION":"15.06408396","PERIAPSIS":"546.092","EPOCH":"2022-07-13T03:18:45.544896","TLE_LINE1":"1 48386U 21038AK  22194.13802714  .00005422  00000-0  38251-3 0  9992","EPHEMERIS_TYPE":"0","OBJECT_TYPE":"PAYLOAD","INCLINATION":"53.0529","CENTER_NAME":"EARTH","GP_ID":"208005147","DECAY_DATE":null,"REV_AT_EPOCH":"6652","APOAPSIS":"548.283"},{"MEAN_ELEMENT_THEORY":"SGP4","FILE":"3512184","OBJECT_NAME":"STARLINK-2600","EPOCH":"2022-07-12T12:05:48.058944","TLE_LINE1":"1 48387U 21038AL  22193.50402846  .00001851  00000-0  14313-3 0  9990","EPHEMERIS_TYPE":"0","OBJECT_TYPE":"PAYLOAD","PERIAPSIS":"546.006","MEAN_MOTION":"15.06400932","ELEMENT_SET_NO":"999","INCLINATION":"53.0537","CENTER_NAME":"EARTH","APOAPSIS":"548.415","DECAY_DATE":null,"REV_AT_EPOCH":"6584","GP_ID":"207968778","RCS_SIZE":"MEDIUM","BSTAR":"0.00014313000000","TIME_SYSTEM":"UTC","NORAD_CAT_ID":"48387","OBJECT_ID":"2021-038AL","RA_OF_ASC_NODE":"224.9653","MEAN_MOTION_DOT":"0.00001851","ECCENTRICITY":"0.00017390","SEMIMAJOR_AXIS":"6925.346","CLASSIFICATION_TYPE":"U","TLE_LINE2":"2 48387  53.0537 224.9653 0001739  51.1358 308.9786 15.06400932 65843","LAUNCH_DATE":"2021-05-04","PERIOD":"95.592","ARG_OF_PERICENTER":"51.1358","SITE":"AFETR","COUNTRY_CODE":"US","MEAN_ANOMALY":"308.9786","MEAN_MOTION_DDOT":"0.0000000000000","REF_FRAME":"TEME"},{"OBJECT_NAME":"STARLINK-2594","FILE":"3512184","MEAN_ELEMENT_THEORY":"SGP4","PERIAPSIS":"546.089","TLE_LINE1":"1 48388U 21038AM  22193.50036219  .00007204  00000-0  50192-3 0  9991","OBJECT_TYPE":"PAYLOAD","EPHEMERIS_TYPE":"0","EPOCH":"2022-07-12T12:00:31.293216","ELEMENT_SET_NO":"999","MEAN_MOTION":"15.06406996","INCLINATION":"53.0524","CENTER_NAME":"EARTH","REV_AT_EPOCH":"6584","DECAY_DATE":null,"APOAPSIS":"548.295","GP_ID":"207969027","RCS_SIZE":"LARGE","TIME_SYSTEM":"UTC","BSTAR":"0.00050192000000","OBJECT_ID":"2021-038AM","NORAD_CAT_ID":"48388","ECCENTRICITY":"0.00015930","MEAN_MOTION_DOT":"0.00007204","RA_OF_ASC_NODE":"225.0139","LAUNCH_DATE":"2021-05-04","TLE_LINE2":"2 48388  53.0524 225.0139 0001593  69.2256 290.8904 15.06406996 65843","SEMIMAJOR_AXIS":"6925.327","CLASSIFICATION_TYPE":"U","MEAN_ANOMALY":"290.8904","COUNTRY_CODE":"US","SITE":"AFETR","ARG_OF_PERICENTER":"69.2256","PERIOD":"95.592","MEAN_MOTION_DDOT":"0.0000000000000","REF_FRAME":"TEME"},{"PERIAPSIS":"546.166","EPOCH":"2022-07-12T11:41:13.458048","TLE_LINE1":"1 48389U 21038AN  22193.48696132 -.00000305  00000-0 -16060-5 0  9990","OBJECT_TYPE":"PAYLOAD","EPHEMERIS_TYPE":"0","ELEMENT_SET_NO":"999","MEAN_MOTION":"15.06394572","MEAN_ELEMENT_THEORY":"SGP4","OBJECT_NAME":"STARLINK-1904","FILE":"3512102","DECAY_DATE":null,"REV_AT_EPOCH":"6649","APOAPSIS":"548.294","GP_ID":"207945570","CENTER_NAME":"EARTH","INCLINATION":"53.0541","NORAD_CAT_ID":"48389","OBJECT_ID":"2021-038AN","RCS_SIZE":"LARGE","TIME_SYSTEM":"UTC","BSTAR":"-0.00000160600000","COUNTRY_CODE":"US","MEAN_ANOMALY":"296.3157","PERIOD":"95.592","ARG_OF_PERICENTER":"63.7990","SITE":"AFETR","MEAN_MOTION_DDOT":"0.0000000000000","REF_FRAME":"TEME","MEAN_MOTION_DOT":"-0.00000305","ECCENTRICITY":"0.00015360","RA_OF_ASC_NODE":"220.0643","LAUNCH_DATE":"2021-05-04","SEMIMAJOR_AXIS":"6925.365","CLASSIFICATION_TYPE":"U","TLE_LINE2":"2 48389  53.0541 220.0643 0001536  63.7990 296.3157 15.06394572 66498"}];
